IRIDIUM 171             
1 43929U 19002H   23272.82045017  .00000012  00000+0 -26803-5 0  9999
2 43929  86.3980  48.0737 0002037  96.9082 263.2345 14.34214967246860
IRIDIUM 170             
1 43930U 19002J   23272.92409233  .00001901  00000+0  29740-3 0  9994
2 43930  86.6106  47.8892 0002230  89.1682 270.9790 14.72274213253419
IRIDIUM 167             
1 43931U 19002K   23273.09318249  .00000049  00000+0  10582-4 0  9997
2 43931  86.3974  47.7770 0002001  98.2946 261.8477 14.34212638246902
IRIDIUM 181             
1 56726U 23068S   23273.47688812  .00000242  00000+0  65565-4 0  9994
2 56726  86.8571  88.7326 0000868  94.6626 265.4674 14.43577865 19523
IRIDIUM 177             
1 56727U 23068T   23273.75616683  .00000897  00000+0  11453-3 0  9995
2 56727  86.1932  78.9952 0002419  97.4380 262.7116 14.80243789 19859
IRIDIUM 174             
1 56728U 23068U   23273.75073430  .00000899  00000+0  11472-3 0  9996
2 56728  86.1940  79.0805 0002395  87.6024 272.5471 14.80243600 19852
IRIDIUM 178             
1 56729U 23068V   23273.74511317  .00000857  00000+0  10936-3 0  9995
2 56729  86.5731  84.2091 0002610  90.4428 269.7092 14.80233238 19853
IRIDIUM 179             
1 56730U 23068W   23273.46932128  .00000878  00000+0  11214-3 0  9996
2 56730  86.6739  85.1793 0002565  93.4319 266.7196 14.80232818 19815
